alljs=[
[
 "RANGE A",
 "1 43773U 18099R   25142.56407423  .00003919  00000-0  25212-3 0  9993",
 "2 43773  97.4492 191.4889 0009859 250.0915 109.9252 15.08920403353500"
],
[
 "OBJECT T",
 "1 43775U 18099T   25142.10236967  .00002880  00000-0  19783-3 0  9990",
 "2 43775  97.4735 193.0755 0005164 215.0726 145.0162 15.06721267353368"
],
[
 "MOVE-II",
 "1 43780U 18099Y   25142.20097064  .00159071  00000-0  13760-2 0  9993",
 "2 43780  97.4661 216.5248 0006635 199.2161 160.8851 15.68665867354913"
],
[
 "ITASAT",
 "1 43786U 18099AE  25142.15776916  .00005794  00000+0  33401-3 0  9999",
 "2 43786  97.4581 196.9145 0012716 268.6537  91.3237 15.12699539353672"
],
[
 "KAZSCISAT-1",
 "1 43787U 18099AF  25142.43003541  .00158458  00000-0  15215-2 0  9997",
 "2 43787  97.4474 212.2243 0006184 195.1055 165.0021 15.66081377354884"
],
[
 "JY1SAT (JO-97)",
 "1 43803U 18099AX  25142.15910688  .00009706  00000+0  44798-3 0  9993",
 "2 43803  97.4675 201.4047 0007379 195.7746 164.3260 15.20405626353971"
],
[
 "SUOMI100",
 "1 43804U 18099AY  25142.60568657  .00007981  00000-0  39466-3 0  9999",
 "2 43804  97.4742 201.1938 0012124 202.5917 157.4785 15.18030481353979"
],
[
 "OBJECT BA",
 "1 43806U 18099BA  25142.56435733  .00005207  00000-0  31824-3 0  9993",
 "2 43806  97.4539 194.9298 0006947 230.9518 129.1094 15.10672998353360"
],
[
 "UWE-4",
 "1 43880U 18111E   25142.50356278  .00012882  00000-0  51230-3 0  9990",
 "2 43880  97.5912  55.1079 0009882 275.3890  84.6220 15.25379992350873"
],
[
 "D-STAR ONE SPARROW",
 "1 43881U 18111F   25142.50047711  .00017738  00000-0  60498-3 0  9991",
 "2 43881  97.6110  59.3112 0004980 317.4794  42.6060 15.30404335351024"
],
[
 "METEOR M2-2",
 "1 44387U 19038A   25142.58296291  .00000082  00000-0  55399-4 0  9998",
 "2 44387  98.8736 120.0881 0002349  74.8259 285.3179 14.24203512305694"
],
[
 "TAURUS-1",
 "1 44530U 19059C   25142.63609457  .00005811  00000-0  10776-2 0  9992",
 "2 44530  98.6046 281.1826 0010641  96.4574 263.7840 14.65625754301319"
],
[
 "DUCHIFAT-3",
 "1 44854U 19089C   25142.60370424  .00036477  00000-0  75028-3 0  9994",
 "2 44854  36.9428 109.3604 0003016 211.6859 148.3716 15.45034593300231"
],
[
 "TIANYAN 01",
 "1 44881U 19093C   25142.57611862  .00000871  00000-0  10685-3 0  9996",
 "2 44881  97.7926 218.6020 0012397 293.0026  66.9882 14.85564294293405"
],
[
 "FLORIPASAT-1",
 "1 44885U 19093G   25142.51719466  .00005216  00000-0  44329-3 0  9993",
 "2 44885  97.8149 230.0822 0008843 260.1543  99.8680 14.98271276294046"
],
[
"RS-44",
"1 44909U 19096E   22226.43677433  .00000015  00000-0  13703-4 0  9996",
"2 44909  82.5223 191.7547 0217201 183.8658 176.0775 12.79714302122921"
],
[
 "BREEZE-KM R/B",
 "1 44909U 19096E   25142.33805556  .00000007  00000-0 -12989-4 0  9991",
 "2 44909  82.5223 239.3959 0216937 338.5209  20.6891 12.79740575252358"
],
[
 "ONEWEB-0028",
 "1 45140U 20008K   25142.39956792  .00000180  00000-0  47062-3 0  9999",
 "2 45140  87.8812  98.9811 0001878  54.7858 305.3446 13.11500832257404"
],
[
 "UPMSAT-2",
 "1 46276U 20061E   25142.17278889  .00055508  00000-0  53640-3 0  9992",
 "2 46276  97.2448 215.9690 0001719 163.5059 196.6258 15.66285923262587"
],
[
 "DIDO 3",
 "1 46284U 20061N   25081.48766028  .07487664  24492-5  76787-3 0  9996",
 "2 46284  97.2679 159.5651 0011148 273.5907  86.4116 16.37766130252652"
],
[
 "AMICALSAT",
 "1 46287U 20061R   25010.85863821  .11283921  24654-5  56408-3 0  9994",
 "2 46287  97.2840  89.8720 0009935 281.1985  78.8199 16.41970930241877"
],
[
 "NORBI",
 "1 46494U 20068J   25142.58311679  .00011520  00000-0  38236-3 0  9991",
 "2 46494  97.8546 125.1409 0009205 201.2803 158.8056 15.31371796256135"
],
[
 "NETSAT-4",
 "1 46504U 20068U   25141.90578277  .00011526  00000+0  40016-3 0  9991",
 "2 46504  97.8444 118.6877 0005023 267.7240  92.3424 15.29939717255697"
],
[
 "NETSAT-3",
 "1 46505U 20068V   25142.46944788  .00010934  00000+0  39693-3 0  9999",
 "2 46505  97.8440 118.2671 0004864 281.1660  78.9032 15.28495186255747"
],
[
 "NETSAT-1",
 "1 46506U 20068W   25142.13796636  .00008441  00000+0  35322-3 0  9996",
 "2 46506  97.8469 115.8775 0004847 304.3476  55.7301 15.23834742255552"
],
[
 "NETSAT-2",
 "1 46507U 20068X   25142.48028558  .00011826  00000+0  41541-3 0  9997",
 "2 46507  97.8441 118.7922 0003724 308.6997  51.3908 15.29555762255729"
],
[
 "UVSQ-SAT",
 "1 47438U 21006AB  24298.11681880  .03670113  23594-5  18855-2 0  9991",
 "2 47438  97.2775   3.3666 0006581 273.2868  86.7668 16.20433421208899"
],
[
 "IDEASSAT",
 "1 47458U 21006AX  24344.77491743  .11308816  24541-5  59030-3 0  9995",
 "2 47458  97.2702  49.5935 0010118 282.6552  77.3617 16.41754873215974"
],
[
 "UNISAT 7",
 "1 47945U 21022P   25142.44506772  .00009373  00000-0  33488-3 0  9996",
 "2 47945  97.4236  41.1209 0012665  38.0525 322.1607 15.28979574229946"
],
[
 "OBJECT Y",
 "1 47954U 21022Y   25080.91203790  .15245865  27065-5  42405-3 0  9991",
 "2 47954  97.3968 355.6048 0009090 202.7483 157.3418 16.44870059221398"
],
[
 "GRBALPHA",
 "1 47959U 21022AD  25142.60915117  .00379900  56320-4  12171-2 0  9997",
 "2 47959  97.4119  55.7743 0004791 115.3215 244.8555 15.90985106229838"
],
[
 "OBJECT AE",
 "1 47960U 21022AE  25102.18991407  .08920267  26050-5  10403-2 0  9994",
 "2 47960  97.4008  17.2508 0008002 203.8387 156.2541 16.36719701224430"
],
[
 "CSS (TIANHE-1)",
 "1 48274U 21035A   25142.18705856  .00023569  00000-0  26205-3 0  9993",
 "2 48274  41.4637 178.5073 0005662 313.7184  46.3186 15.62307660232099"
],
[
 "TUBIN",
 "1 48900U 21059X   25142.50382639  .00035213  00000-0  45396-3 0  9992",
 "2 48900  97.6743 310.2856 0002478 285.3911  74.7070 15.58939853217229"
],
[
 "LEDSAT",
 "1 49069U 21073D   25142.27592266  .00054581  00000+0  71547-3 0  9993",
 "2 49069  97.3899 223.0819 0011677 146.6189 213.5805 15.58323485208588"
],
[
 "CUTE-LASP",
 "1 49263U 21088D   25142.56524843  .00012792  00000-0  26130-3 0  9990",
 "2 49263  97.4515 218.3070 0006627 310.0109  50.0558 15.46282639201645"
],
[
 "TEIKYOSAT-4 (OORURI)",
 "1 49396U 21102B   25142.56417149  .00001734  00000-0  11787-3 0  9990",
 "2 49396  97.4115 181.6427 0012286 187.6417 172.4626 15.07564279193830"
],
[
 "Z-SAT",
 "1 49399U 21102E   25142.57944244  .00003862  00000-0  21387-3 0  9996",
 "2 49399  97.3817 184.6429 0018846 161.4855 198.7067 15.14252016194258"
],
[
 "KOSEN-1",
 "1 49402U 21102H   25142.56907244  .00005935  00000-0  27733-3 0  9993",
 "2 49402  97.3721 187.9130 0017345 138.1640 222.0925 15.20036188194552"
],
[
 "XW-3 (CAS-9)",
 "1 50466U 21131B   25142.56606711  .00000507  00000-0  17229-3 0  9991",
 "2 50466  98.5093 232.0081 0004336 173.7026 186.4218 14.40791770178854"
],
[
 "IRIS-A",
 "1 51044U 22002BN  25142.17441697  .00465059  92192-4  10495-2 0  9990",
 "2 51044  97.3172 222.2454 0007966 229.9900 130.0679 15.97576542186962"
],
[
 "VZLUSAT-2",
 "1 51085U 22002DF  25142.53558258  .00035079  00000-0  51565-3 0  9999",
 "2 51085  97.3340 214.9335 0004894 247.1270 112.9468 15.55388431186472"
],
[
 "ORESAT0",
 "1 52017U 22026K   24273.45232859  .15962284  26361-5  29990-3 0  9995",
 "2 52017  97.4545 295.1270 0013084 250.0501 109.9393 16.46521474142074"
],
[
 "PLANETUM1",
 "1 52738U 22057G   24334.51223436  .16479580  26697-5  24945-3 0  9995",
 "2 52738  97.5508 111.5244 0009582 276.9617  83.0596 16.48177112140342"
],
[
 "RANDEV",
 "1 52898U 22065E   25142.58925426  .00001000  00000-0  20580-3 0  9991",
 "2 52898  98.1675 284.4717 0008507 161.6815 198.4694 14.62642600154137"
],
[
 "SNUGLITE-II",
 "1 52899U 22065F   25142.36821794  .00001176  00000-0  23775-3 0  9994",
 "2 52899  98.1663 284.5221 0008085 161.6664 198.4831 14.63168641153826"
],
[
 "GREENCUBE (IO-117)",
 "1 53109U 22080E   25142.22570860 -.00000003  00000-0  00000-0 0  9998",
 "2 53109  70.1370  74.2017 0008704  13.1485 346.9400  6.42584108 66949"
],
[
 "NOAA 21",
 "1 54234U 22150A   25142.54934413  .00000057  00000-0  47729-4 0  9990",
 "2 54234  98.7267  81.6841 0001002 180.4140 179.7035 14.19533358131120"
],
[
 "OBJECT C",
 "1 54684U 22167C   25064.68183564  .08547514  26414-5  93170-3 0  9992",
 "2 54684  97.5856 230.7463 0011725 277.2083  82.7881 16.37185507124845"
],
[
 "BRO-8",
 "1 55011U 23001C   25142.55733583  .00012805  00000-0  45426-3 0  9991",
 "2 55011  97.3780 202.2386 0010516  91.1077 269.1368 15.29148032132173"
],
[
 "BDSAT-2",
 "1 55098U 23001CT  25043.17195676  .04841583  24403-5  13946-2 0  9995",
 "2 55098  97.3601 120.6613 0008975 287.7661  72.2652 16.27416800118122"
],
[
 "SHARJAHSAT-1",
 "1 55104U 23001CZ  25142.60637910  .00009959  00000-0  30183-3 0  9997",
 "2 55104  97.3722 204.2181 0009565  79.0520 281.1798 15.34296117132341"
],
[
 "EOS-7",
 "1 55562U 23019A   24363.45300977  .04873498  38898-5  83598-3 0  9991",
 "2 55562  37.1672  46.7039 0002842 101.5126 258.5981 16.31915089106730"
],
[
 "KILICSAT",
 "1 56181U 23054D   25030.22200029  .12678910  26668-5  31275-3 0  9990",
 "2 56181  97.3110 300.8595 0005727 223.4023 136.6830 16.45875275101482"
],
[
 "BRO-9",
 "1 56185U 23054H   25142.55961547  .00014624  00000-0  28855-3 0  9993",
 "2 56185  97.3265  43.9529 0006519  47.5609 312.6191 15.47256131118157"
],
[
 "CIRBE",
 "1 56188U 23054L   24278.18657892  .15167412  25747-5  32054-3 0  9995",
 "2 56188  97.3167 183.5106 0004698 260.0967  99.9806 16.46793547 83389"
],
[
 "IRIS-C",
 "1 56221U 23054AV  24292.66240337  .10137280  25872-5  12701-2 0  9994",
 "2 56221  97.3146 196.9710 0006386 176.8934 183.2405 16.36100452 85534"
],
[
 "SPEI SATELLES",
 "1 56991U 23084BT  25093.89040148  .09884965  26180-5  77059-3 0  9992",
 "2 56991  97.5226 233.3404 0013114 278.3259  81.6553 16.39623223101252"
],
[
 "URESAT-1",
 "1 56992U 23084BU  25042.76759540  .17342116  26494-5  33638-3 0  9995",
 "2 56992  97.5047 178.6720 0014759 276.3055  83.6566 16.46134597 93271"
],
[
 "MRC-100",
 "1 56993U 23084BV  25004.25947094  .12600048  25824-5  83387-3 0  9999",
 "2 56993  97.5134 139.2748 0011223 298.8771  61.1402 16.40581581 87376"
]];
